NORAD_CAT_ID,OBJECT_NAME,OBJECT_TYPE,EPOCH,MEAN_MOTION,ECCENTRICITY,INCLINATION,RA_OF_ASC_NODE,ARG_OF_PERICENTER,MEAN_ANOMALY,BSTAR,MEAN_MOTION_DOT,MEAN_MOTION_DDOT,TLE_LINE0,TLE_LINE1,TLE_LINE2,SEMIMAJOR_AXIS,PERIOD,APOGEE,PERIGEE,DECAYED
53545.0,STARLINK-4475,PAYLOAD,2022-08-24 14:00:01,15.89804716,0.0039448999999999,53.2174,131.4004,56.2874,40.6962,-0.00396,-0.01288022,0.00047454,0 STARLINK-4475,1 53545U 22101U   22236.58334491 -.01288022  47454-3 -39600-2 0  9992,2 53545  53.2174 131.4004 0039449  56.2874  40.6962 15.89804716   770,6680.967,90.577,329.1880000000001,276.476,0.0
53545.0,STARLINK-4475,PAYLOAD,2022-08-25 04:00:00,15.88312224,0.0032989,53.2173,128.4481,57.7682,138.1842,-0.0045517,-0.01341765,0.00050415,0 STARLINK-4475,1 53545U 22101U   22237.16667824 -.01341765  50415-3 -45517-2 0  9995,2 53545  53.2173 128.4481 0032989  57.7682 138.1842 15.88312224   866,6685.151999999999,90.662,329.07,284.963,0.0
53545.0,STARLINK-4475,PAYLOAD,2022-08-25 12:00:00,15.87455198,0.002983,53.2175,126.7602,58.5429,243.9621,-0.0048826,-0.01366174,0.00051691,0 STARLINK-4475,1 53545U 22101U   22237.50001157 -.01366174  51691-3 -48826-2 0  9998,2 53545  53.2175 126.7602 0029830  58.5429 243.9621 15.87455198   916,6687.557,90.711,329.371,289.473,0.0
53545.0,STARLINK-4475,PAYLOAD,2022-08-25 14:00:01,15.87205405,0.0029035,53.2174,126.3384,58.0954,0.8972,-0.0047067,-0.01298709,0.00047025,0 STARLINK-4475,1 53545U 22101U   22237.58334491 -.01298709  47025-3 -47067-2 0  9996,2 53545  53.2174 126.3384 0029035  58.0954   0.8972 15.87205405  1300,6688.259,90.725,329.543,290.705,0.0
53545.0,STARLINK-4475,PAYLOAD,2022-08-25 18:00:00,15.86806645,0.0027228,53.2175,125.4975,58.2778,233.4573,-0.0050913,-0.01370404,0.00051676,0 STARLINK-4475,1 53545U 22101U   22237.75001157 -.01370404  51676-3 -50913-2 0  9999,2 53545  53.2175 125.4975 0027228  58.2778 233.4573 15.86806645   958,6689.379,90.748,329.458,293.031,0.0
53545.0,STARLINK-4475,PAYLOAD,2022-08-25 22:00:00,15.86351323,0.0025708,53.2176,124.6572,57.3505,106.8866,-0.0050547,-0.013262,0.00048477,0 STARLINK-4475,1 53545U 22101U   22237.91667824 -.01326200  48477-3 -50547-2 0  9999,2 53545  53.2176 124.6572 0025708  57.3505 106.8866 15.86351323  1308,6690.659000000002,90.774,329.725,295.324,0.0
53545.0,STARLINK-4475,PAYLOAD,2022-08-26 12:00:00,15.84855973,0.0020047,53.2174,121.716,58.4254,197.483,-0.0057003,-0.01212027,0.0,0 STARLINK-4475,1 53545U 22101U   22238.50001157 -.01212027  00000-0 -57003-2 0  9998,2 53545  53.2174 121.7160 0020047  58.4254 197.4830 15.84855973  1070,6694.8669999999975,90.86,330.154,303.311,0.0
53545.0,STARLINK-4475,PAYLOAD,2022-08-26 14:00:01,15.84614705,0.0019129,53.2172,121.2959,57.6688,314.0085,-0.0055722,-0.01173803,0.0,0 STARLINK-4475,1 53545U 22101U   22238.58335648 -.01173803  00000-0 -55722-2 0  9995,2 53545  53.2172 121.2959 0019129  57.6688 314.0085 15.84614705  1301,6695.547,90.874,330.22,304.6040000000001,0.0
53545.0,STARLINK-4475,PAYLOAD,2022-08-26 22:00:00,15.83737569,0.0016147,53.2172,119.6213,57.087,56.6471,-0.0057393,-0.0115453999999999,0.0,0 STARLINK-4475,1 53545U 22101U   22238.91667824 -.01154540  00000-0 -57393-2 0  9999,2 53545  53.2172 119.6213 0016147  57.0870  56.6471 15.83737569  1300,6698.019,90.924,330.699,309.069,0.0
53545.0,STARLINK-4475,PAYLOAD,2022-08-27 14:00:01,15.82028981,0.0009619,53.2175,116.2727,54.7005,260.1399,-0.0065469,-0.01219129,0.0,0 STARLINK-4475,1 53545U 22101U   22239.58334491 -.01219129  00000-0 -65469-2 0  9992,2 53545  53.2175 116.2727 0009619  54.7005 260.1399 15.82028981  1307,6702.84,91.022,331.153,318.258,0.0
53545.0,STARLINK-4475,PAYLOAD,2022-08-27 20:00:01,15.81379822,0.0007172999999999,53.2176,115.0215,47.4769,251.7042,-0.0067786,-0.01220909,0.0,0 STARLINK-4475,1 53545U 22101U   22239.83334491 -.01220909  00000-0 -67786-2 0  9992,2 53545  53.2176 115.0215 0007173  47.4769 251.7042 15.81379822  1286,6704.675,91.06,331.349,321.73,0.0
53545.0,STARLINK-4475,PAYLOAD,2022-08-27 22:00:00,15.81138326,0.0006506,53.2176,114.6047,42.8505,10.9885,-0.0065878,-0.01177644,0.0,0 STARLINK-4475,1 53545U 22101U   22239.91667824 -.01177644  00000-0 -65878-2 0  9997,2 53545  53.2176 114.6047 0006506  42.8505  10.9885 15.81138326  1305,6705.357,91.074,331.585,322.86,0.0
53545.0,STARLINK-4475,PAYLOAD,2022-08-28 14:00:01,15.79417912,0.0002996999999999,53.2172,111.2687,14.3623,234.3281,-0.0073156,-0.01201395,0.0,0 STARLINK-4475,1 53545U 22101U   22240.58334491 -.01201395  00000-0 -73156-2 0  9992,2 53545  53.2172 111.2687 0002997  14.3623 234.3281 15.79417912  1309,6710.226,91.173,334.102,330.08,0.0
53545.0,STARLINK-4475,PAYLOAD,2022-08-28 20:00:01,15.78763106,0.0002771,53.2174,110.0225,11.9632,218.7228,-0.0074903999999999,-0.01194455,0.0,0 STARLINK-4475,1 53545U 22101U   22240.83334491 -.01194455  00000-0 -74904-2 0  9990,2 53545  53.2174 110.0225 0002771  11.9632 218.7228 15.78763106  1449,6712.081,91.211,335.806,332.086,0.0
53545.0,STARLINK-4475,PAYLOAD,2022-08-28 22:00:00,15.78548622,0.0002836999999999,53.2173,109.6072,8.8877,335.6653,-0.0075935,-0.01198631,0.0,0 STARLINK-4475,1 53545U 22101U   22240.91667824 -.01198631  00000-0 -75935-2 0  9993,2 53545  53.2173 109.6072 0002837   8.8877 335.6653 15.78548622  1301,6712.689,91.223,336.458,332.65,0.0
53545.0,STARLINK-4475,PAYLOAD,2022-08-29 12:00:00,15.77030999,0.0003197,53.2175,106.6992,345.0823,74.7226,-0.0081502,-0.01201105,0.0,0 STARLINK-4475,1 53545U 22101U   22241.50001157 -.01201105  00000-0 -81502-2 0  9998,2 53545  53.2175 106.6992 0003197 345.0823  74.7226 15.77030999  1554,6716.995,91.311,341.00699999999995,336.713,0.0
53545.0,STARLINK-4475,PAYLOAD,2022-08-29 14:00:01,15.76812756,0.000323,53.2175,106.2841,357.7143,175.4372,-0.0082054,-0.01197891,0.0,0 STARLINK-4475,1 53545U 22101U   22241.58334491 -.01197891  00000-0 -82054-2 0  9995,2 53545  53.2175 106.2841 0003230 357.7143 175.4372 15.76812756  1308,6717.615,91.323,341.65,337.31,0.0
53545.0,STARLINK-4475,PAYLOAD,2022-08-29 22:00:00,15.7593107,0.0003666999999999,53.2175,104.629,324.5734,301.3158,-0.0083522,-0.01175387,0.0,0 STARLINK-4475,1 53545U 22101U   22241.91667824 -.01175387  00000-0 -83522-2 0  9998,2 53545  53.2175 104.6290 0003667 324.5734 301.3158 15.75931070  1302,6720.12,91.375,344.449,339.521,0.0
53545.0,STARLINK-4475,PAYLOAD,2022-08-30 06:00:00,15.75071687,3.46e-05,53.2172,102.9731,3.7511,353.8271,-0.0087857,-0.01186826,0.0,0 STARLINK-4475,1 53545U 22101U   22242.25001157 -.01186826  00000-0 -87857-2 0  9992,2 53545  53.2172 102.9731 0000346   3.7511 353.8271 15.75071687  1666,6722.564,91.424,344.662,344.19699999999995,0.0
53545.0,STARLINK-4475,PAYLOAD,2022-08-30 14:00:01,15.74188171,0.0001286999999999,53.2168,101.3193,61.724,26.4669,-0.0076914,-0.01017858,0.0,0 STARLINK-4475,1 53545U 22101U   22242.58334491 -.01017858  00000-0 -76914-2 0  9998,2 53545  53.2168 101.3193 0001287  61.7240  26.4669 15.74188171  1305,6725.079000000002,91.476,347.81,346.079,0.0
53545.0,STARLINK-4475,PAYLOAD,2022-08-30 20:00:01,15.73465971,0.0001361999999999,53.2174,100.082,60.4134,5.1246,-0.0027232,-0.00370661,0.0,0 STARLINK-4475,1 53545U 22101U   22242.83334491 -.00370661  00000-0 -27232-2 0  9998,2 53545  53.2174 100.0820 0001362  60.4134   5.1246 15.73465971  1767,6727.137,91.518,349.918,348.086,0.0
53545.0,STARLINK-4475,PAYLOAD,2022-08-30 22:00:00,15.73126841,0.0001351,53.2168,99.6716,78.01899999999998,99.8193,0.0021057,0.00304929,0.0,0 STARLINK-4475,1 53545U 22101U   22242.91667824  .00304929  00000-0  21057-2 0  9997,2 53545  53.2168  99.6716 0001351  78.0190  99.8193 15.73126841  1303,6728.104,91.537,350.87800000000016,349.06,0.0
53545.0,STARLINK-4475,PAYLOAD,2022-08-31 14:00:01,15.7320346,0.0001409,53.2162,96.3737,80.4217,275.1595,0.00040234,0.00056233,0.0,0 STARLINK-4475,1 53545U 22101U   22243.58334491  .00056233  00000-0  40234-3 0  9993,2 53545  53.2162  96.3737 0001409  80.4217 275.1595 15.73203460  1303,6727.885,91.533,350.6980000000001,348.802,0.0
53545.0,STARLINK-4475,PAYLOAD,2022-08-31 20:00:01,15.73237309,0.0001453999999999,53.2158,95.1382,72.6358,259.6585,5.5721e-05,7.219e-05,0.0,0 STARLINK-4475,1 53545U 22101U   22243.83334491  .00007219  00000-0  55721-4 0  9999,2 53545  53.2158  95.1382 0001454  72.6358 259.6585 15.73237309  1912,6727.7890000000025,91.531,350.63199999999995,348.676,0.0
53545.0,STARLINK-4475,PAYLOAD,2022-08-31 22:00:00,15.73229643,0.0001457,53.2158,94.7263,70.6702,13.8689,0.00024183,0.00033498,0.0,0 STARLINK-4475,1 53545U 22101U   22243.91667824  .00033498  00000-0  24183-3 0  9992,2 53545  53.2158  94.7263 0001457  70.6702  13.8689 15.73229643  1309,6727.811,91.531,350.656,348.695,0.0
53545.0,STARLINK-4475,PAYLOAD,2022-09-01 14:00:01,15.73246417,0.0001246,53.2159,91.4247,82.1281,180.4756,-0.00044065,-0.00062129,0.0,0 STARLINK-4475,1 53545U 22101U   22244.58335648 -.00062129  00000-0 -44065-3 0  9998,2 53545  53.2159  91.4247 0001246  82.1281 180.4756 15.73246417  1306,6727.763000000001,91.53,350.466,348.79,0.0
53545.0,STARLINK-4475,PAYLOAD,2022-09-01 20:00:01,15.73189565,0.0001376999999999,53.2159,90.1893,72.4544,166.8779,0.0001152,0.0001557,0.0,0 STARLINK-4475,1 53545U 22101U   22244.83335648  .00015570  00000-0  11520-3 0  9992,2 53545  53.2159  90.1893 0001377  72.4544 166.8779 15.73189565  2076,6727.925,91.534,350.716,348.86300000000006,0.0
53545.0,STARLINK-4475,PAYLOAD,2022-09-01 22:00:00,15.7318318,0.0001395999999999,53.2162,89.7773,70.8205,280.6775,0.00029907,0.0004153,0.0,0 STARLINK-4475,1 53545U 22101U   22244.91667824  .00041530  00000-0  29907-3 0  9998,2 53545  53.2162  89.7773 0001396  70.8205 280.6775 15.73183180  1301,6727.943,91.534,350.747,348.869,0.0
53545.0,STARLINK-4475,PAYLOAD,2022-09-02 14:00:01,15.73208338,0.0001078,53.2165,86.4764,76.5166,92.8792,5.1211e-05,6.576e-05,0.0,0 STARLINK-4475,1 53545U 22101U   22245.58334491  .00006576  00000-0  51211-4 0  9998,2 53545  53.2165  86.4764 0001078  76.5166  92.8792 15.73208338  1309,6727.871,91.533,350.462,349.011,0.0
